     3.00           N: GNSS NAV DATA    E: Galileo          RINEX VERSION / TYPE
PREC2NAV                                20121215 063308 UTC PGM / RUN BY / DATE 
SOURCE: data/tum%W%D.sp3                                    COMMENT             
                                                            END OF HEADER       
E12 2012 11  8 14  0  0  .463075014520E-03  .850390794872E-10  .000000000000E+00
      .800000000000E+01 -.934979967135E+02  .348923237690E-08 -.112052073031E+01
     -.424138100107E-05  .363146976632E-04  .846713305918E-05  .544060825681E+04
      .396000000000E+06  .745164494698E-07  .131645215438E+01  .758505136691E-07
      .956086878360E+00  .155054934933E+03  .296322105360E+01 -.582104683473E-08
     -.276534711836E-09  .000000000000E+00  .171300000000E+04  .000000000000E+00
      .240000000000E+01  .000000000000E+00  .000000000000E+00  .000000000000E+00
      .399600000000E+06  .000000000000E+00
E11 2012 11  8 16  0  0  .232978675520E-03  .385352628205E-09  .000000000000E+00
      .900000000000E+01 -.885175918365E+02  .350828384747E-08  .708907237951E+00
     -.406345428149E-05  .142696330791E-03  .819017297338E-05  .544060869518E+04
      .403200000000E+06  .305240609198E-07  .131643618740E+01  .853795157150E-07
      .956073245679E+00  .161807349927E+03  .132260269939E+01 -.580694214173E-08
     -.239601109982E-09  .000000000000E+00  .171300000000E+04  .000000000000E+00
      .240000000000E+01  .000000000000E+00  .000000000000E+00  .000000000000E+00
      .406800000000E+06  .000000000000E+00
E12 2012 11  8 16  0  0  .463687347920E-03  .850369948718E-10  .000000000000E+00
      .900000000000E+01 -.805691736801E+02  .352779239362E-08 -.277535946026E+00
     -.373976585717E-05  .351523124206E-04  .803394594463E-05  .544060403994E+04
      .403200000000E+06 -.284077134041E-07  .131640994936E+01  .374660759389E-07
      .956085474411E+00  .165684746788E+03  .301286811666E+01 -.575447498195E-08
     -.204780438189E-09  .000000000000E+00  .171300000000E+04  .000000000000E+00
      .240000000000E+01  .000000000000E+00  .000000000000E+00  .000000000000E+00
      .406800000000E+06  .000000000000E+00
E11 2012 11  8 18  0  0  .235753297440E-03  .385370876923E-09  .000000000000E+00
      .100000000000E+02 -.855690364753E+02  .348734430857E-08  .160034839328E+01
     -.395396588479E-05  .142056655337E-03  .780419404762E-05  .544060847688E+04
      .410400000000E+06 -.271112136214E-07  .131639426942E+01  .339062674378E-07
      .956071933934E+00  .170786319760E+03  .132379201986E+01 -.575743962930E-08
     -.197843346027E-09  .000000000000E+00  .171300000000E+04  .000000000000E+00
      .240000000000E+01  .000000000000E+00  .000000000000E+00  .000000000000E+00
      .414000000000E+06  .000000000000E+00
E12 2012 11  8 18  0  0  .464299676880E-03  .850657615385E-10  .000000000000E+00
      .100000000000E+02 -.815002713704E+02  .345051137369E-08  .607078146412E+00
     -.380910505900E-05  .379950005816E-04  .721847230290E-05  .544060995587E+04
      .410400000000E+06 -.654656167833E-07  .131636835261E+01  .474211558277E-08
      .956083793575E+00  .185886775134E+03 -.326230136881E+01 -.579640897372E-08
     -.196293839650E-09  .000000000000E+00  .171300000000E+04  .000000000000E+00
      .240000000000E+01  .000000000000E+00  .000000000000E+00  .000000000000E+00
      .414000000000E+06  .000000000000E+00
E11 2012 11  8 20  0  0  .238527823160E-03  .385316605128E-09  .000000000000E+00
      .110000000000E+02 -.831008191705E+02  .343009912332E-08  .247649270243E+01
     -.390112229221E-05  .141314808038E-03  .709434843176E-05  .544061349633E+04
      .417600000000E+06 -.605291923617E-07  .131635248567E+01 -.174497510056E-07
      .956070227561E+00  .188510246990E+03 -.494291010249E+01 -.581791972274E-08
     -.181366062538E-09  .000000000000E+00  .171300000000E+04  .000000000000E+00
      .240000000000E+01  .000000000000E+00  .000000000000E+00  .000000000000E+00
      .421200000000E+06  .000000000000E+00
E12 2012 11  8 20  0  0  .464912227000E-03  .850771358974E-10  .000000000000E+00
      .110000000000E+02 -.964171377028E+02  .348506629382E-08 -.158307435784E+01
     -.466042646182E-05 -.370917952692E-04  .678918211820E-05  .544060502692E+04
      .417600000000E+06 -.261053954347E-07  .131632618686E+01 -.362482441708E-07
      .956082359386E+00  .193984622127E+03 -.646270458360E+01 -.583431533888E-08
     -.166494186642E-09  .000000000000E+00  .171300000000E+04  .000000000000E+00
      .240000000000E+01  .000000000000E+00  .000000000000E+00  .000000000000E+00
      .421200000000E+06  .000000000000E+00
E11 2012 11  8 22  0  0  .241302479120E-03  .385392617949E-09  .000000000000E+00
      .120000000000E+02 -.968137672067E+02  .345644813263E-08 -.291030923994E+01
     -.465229031839E-05  .143756117152E-03  .647619188363E-05  .544060831043E+04
      .424800000000E+06 -.351374484739E-07  .131631045425E+01 -.402483555912E-07
      .956068945277E+00  .199466745204E+03  .133651977558E+01 -.583245360133E-08
     -.174314061085E-09  .000000000000E+00  .171300000000E+04  .000000000000E+00
      .240000000000E+01  .000000000000E+00  .000000000000E+00  .000000000000E+00
      .428400000000E+06  .000000000000E+00
E12 2012 11  8 22  0  0  .465524865280E-03  .850790461538E-10  .000000000000E+00
      .120000000000E+02 -.105512206165E+03  .339518506985E-08  .243217694077E+01
     -.491836118456E-05  .362819180744E-04  .667278101673E-05  .544060701569E+04
      .424800000000E+06  .259746633909E-07  .131628452705E+01 -.706989747726E-07
      .956080900501E+00  .191041202642E+03 -.330213994848E+01 -.585628800114E-08
     -.221541543464E-09  .000000000000E+00  .171300000000E+04  .000000000000E+00
      .240000000000E+01  .000000000000E+00  .000000000000E+00  .000000000000E+00
      .428400000000E+06  .000000000000E+00
E11 2012 11  9  0  0  0  .244076273120E-03  .384972425641E-09  .000000000000E+00
      .130000000000E+02 -.107167895817E+03  .326993913304E-08 -.200987290092E+01
     -.492539836316E-05  .142727855370E-03  .650773019717E-05  .544061140852E+04
      .432000000000E+06 -.868374765113E-07  .131626786322E+01 -.318360543891E-06
      .956068038433E+00  .195109555598E+03  .132871217085E+01 -.569441719559E-08
     -.126541114120E-09  .000000000000E+00  .171300000000E+04  .000000000000E+00
      .240000000000E+01  .000000000000E+00  .000000000000E+00  .000000000000E+00
      .435600000000E+06  .000000000000E+00
E12 2012 11  9  0  0  0  .466135750720E-03  .844710871795E-10  .000000000000E+00
      .130000000000E+02 -.106694282462E+03  .319828211992E-08 -.925089954640E+01
     -.481258630288E-05  .372726933162E-04  .720837269405E-05  .544060521284E+04
      .432000000000E+06  .473633147449E-06  .131624242334E+01 -.130819000336E-07
      .956080847477E+00  .180668126721E+03  .299038015344E+01 -.554952853705E-08
     -.247689298223E-09  .000000000000E+00  .171300000000E+04  .000000000000E+00
      .240000000000E+01  .000000000000E+00  .000000000000E+00  .000000000000E+00
      .435600000000E+06  .000000000000E+00
